LEMUR-2-ROUNDTRIPPER    
1 62711U 25009DG  26177.27591793  .00009520  00000+0  69404-3 0  9990
2 62711  97.7250 259.9428 0005579 108.8899 251.2932 15.03931924 78991
LEMUR-2-MYNAMEISJEFF    
1 62712U 25009DH  26176.54243399  .00010532  00000+0  76764-3 0  9998
2 62712  97.7294 259.5966 0004029 135.3275 224.8275 15.03916865 78886
LEMUR-2-LEIA-PHILIP     
1 63246U 25052AN  26177.22503476  .00001243  00000+0  11204-3 0  9997
2 63246  97.6821  69.0237 0003633 179.8804 180.2420 14.97335302 70028
LEMUR-2-LIA-MARTIN      
1 63248U 25052AQ  26177.22705252  .00005092  00000+0  43753-3 0  9995
2 63248  97.6877  69.5138 0003754 141.3804 218.7688 14.97866305 70030
LEMUR-2-DELOITTE-1      
1 63259U 25052BB  26177.27143364  .00003640  00000+0  31585-3 0  9999
2 63259  97.6928  69.8882 0003194  77.7426 282.4154 14.97666425 70057
LEMUR-2-EMERSONROSE     
1 63261U 25052BD  26177.23769859  .00004502  00000+0  37499-3 0  9999
2 63261  97.6879  70.4290 0002023  77.9052 282.2398 14.99139767 70091
LEMUR-2-MARACHE-FRAN    
1 63262U 25052BE  26176.94000321  .00005246  00000+0  42451-3 0  9999
2 63262  97.6926  70.4715 0004565 347.4009  12.7100 15.00173475 70079
LEMUR-2-THEFALCONER     
1 63264U 25052BG  26177.23234189  .00003906  00000+0  34058-3 0  9990
2 63264  97.6848  69.4592 0001586  16.2499 343.8774 14.97439399 70046
LEMUR-2-UNTITLED-SC     
1 63351U 25061A   26177.21240887  .00004078  00000+0  23053-3 0  9991
2 63351  97.5637 152.5085 0017309 230.4277 129.5426 15.13531866 68954
LEMUR-2-ESPERANZA       
1 63352U 25061B   26177.18899685  .00003523  00000+0  19919-3 0  9994
2 63352  97.5641 152.5807 0016920 229.6736 130.3018 15.13623255 68951
LEMUR-2-KREMPEL-BRO2    
1 63353U 25061C   26176.88292740  .00004050  00000+0  22558-3 0  9999
2 63353  97.5690 152.8214 0017969 222.8949 137.0882 15.14059221 68923
LEMUR-2-THERMORAPTOR    
1 63354U 25061D   26177.19496628  .00003882  00000+0  21593-3 0  9996
2 63354  97.5695 153.2090 0017751 220.6208 139.3701 15.14142889 68972
LEMUR-2-NEUROSPICY      
1 63355U 25061E   26176.90162790  .00003801  00000+0  21100-3 0  9990
2 63355  97.5619 152.5364 0015472 224.9017 135.0964 15.14255595 68937
LEMUR-2-TILLINFINITY    
1 63356U 25061F   26177.19775346  .00004113  00000+0  22415-3 0  9997
2 63356  97.5605 153.1277 0017028 211.2410 148.7812 15.14844333 69004
LEMUR-2-KREMPEL-BRO1    
1 63357U 25061G   26177.23844301  .00003798  00000+0  20836-3 0  9994
2 63357  97.5606 153.0817 0017645 212.6899 147.3242 15.14649515 69003
LEMUR-2-LANGER2SPACE    
1 63358U 25061H   26176.93637177  .00004068  00000+0  22498-3 0  9999
2 63358  97.5613 152.5919 0015428 222.9527 137.0501 15.14343732 68946
LEMUR-2-BALTO           
1 63395U 25052BH  26176.65793103  .00006831  00000+0  55111-3 0  9999
2 63395  97.6920  70.1680 0006658  35.4862 324.6803 15.00175304 70038
LEMUR-2-KRISH           
1 64561U 25135AK  26177.30317205  .00005165  00000+0  46222-3 0  9997
2 64561  97.7745 292.1170 0001130  99.7374 260.3975 14.96281635 55286
LEMUR-2-HUBBLE-4        
1 64565U 25135AP  26176.24464968  .00001390  00000+0  13793-3 0  9995
2 64565  97.7646 290.0421 0002848 296.9282  63.1646 14.93362478 55075
LEMUR-2-SEJONG-2        
1 64586U 25135BL  26177.26335772  .00005441  00000+0  48064-3 0  9991
2 64586  97.7690 292.2216 0002859 303.2575  56.8372 14.96764889 55308
LEMUR-2-HUBBLE-5        
1 64840U 25135BT  26177.26526536  .00001968  00000+0  18921-3 0  9993
2 64840  97.7724 291.7102 0004327 319.4758  40.6140 14.94162189 55263
LEMUR-2-KARENDARRELL    
1 64841U 25135BU  26177.25619900  .00009273  00000+0  74452-3 0  9999
2 64841  97.7679 293.4488 0010472 167.7917 192.3562 15.00236349 55371
LEMUR-2-LUCILLE-ROSE    
1 65403U 25135BV  26177.29638442  .00007987  00000+0  64143-3 0  9996
2 65403  97.7748 293.5183 0012235 249.5106 110.4804 15.00260284 50004
LEMUR-2-AFFIE-WAUWIE    
1 66295U 25248C   26176.75498526  .00028463  00000+0  10454-2 0  9995
2 66295  45.3936  68.5606 0007567 143.0765 217.0646 15.27482662 35908
LEMUR-2-DEANANDMAEVE    
1 66678U 25276N   26176.74233791  .00008082  00000+0  38001-3 0  9995
2 66678  97.4218 250.0762 0004880 342.9738  17.1332 15.19830139 31713
LEMUR-2-STAS-GORBUK     
1 66686U 25276W   26177.15398651  .00006745  00000+0  32109-3 0  9994
2 66686  97.4249 250.5351 0004155 342.4929  17.6161 15.19468435 31774
LEMUR-2-TEODOR          
1 66768U 25276DG  26177.19371852  .00006376  00000+0  28939-3 0  9999
2 66768  97.4155 250.8219 0002368 107.8780 252.2714 15.21142064 31815
LEMUR-2-LAILA           
1 66776U 25276DQ  26177.16632194  .00006874  00000+0  30969-3 0  9993
2 66776  97.4178 250.9213 0002664 122.9238 237.2255 15.21364676 31817
LEMUR-2-CELIJO-SB-PK    
1 66781U 25276DW  26177.17548066  .00007215  00000+0  58299-3 0  9990
2 66781  97.5234 247.6578 0008200 110.8239 249.3864 15.00078604 23971
